CCSDS_OMM_VERS = 2.0
CREATION_DATE  = 
ORIGINATOR     = 

OBJECT_NAME    = IDEFIX & ARIANE 42P R/B
OBJECT_ID      = 2002-021B
CENTER_NAME    = EARTH
REF_FRAME      = TEME
TIME_SYSTEM    = UTC
MEAN_ELEMENT_THEORY = SGP/SGP4

EPOCH          = 2026-01-02T20:09:25.254432
MEAN_MOTION    = 14.30969933
ECCENTRICITY   = .001236
INCLINATION    = 98.5808
RA_OF_ASC_NODE = 302.2594
ARG_OF_PERICENTER = 25.9706
MEAN_ANOMALY   = 334.2095

EPHEMERIS_TYPE = 0
CLASSIFICATION_TYPE = U
NORAD_CAT_ID   = 27422
ELEMENT_SET_NO = 999
REV_AT_EPOCH   = 23460
BSTAR          = .26543868E-3
MEAN_MOTION_DOT = .655E-5
MEAN_MOTION_DDOT = 0

CCSDS_OMM_VERS = 2.0
CREATION_DATE  = 
ORIGINATOR     = 

OBJECT_NAME    = AQUA
OBJECT_ID      = 2002-022A
CENTER_NAME    = EARTH
REF_FRAME      = TEME
TIME_SYSTEM    = UTC
MEAN_ELEMENT_THEORY = SGP/SGP4

EPOCH          = 2025-12-31T22:14:01.933728
MEAN_MOTION    = 14.61783896
ECCENTRICITY   = .0001962
INCLINATION    = 98.4058
RA_OF_ASC_NODE = 327.1196
ARG_OF_PERICENTER = 94.7781
MEAN_ANOMALY   = 340.6230

EPHEMERIS_TYPE = 0
CLASSIFICATION_TYPE = U
NORAD_CAT_ID   = 27424
ELEMENT_SET_NO = 999
REV_AT_EPOCH   = 25883
BSTAR          = .42628E-3
MEAN_MOTION_DOT = .2078E-4
MEAN_MOTION_DDOT = 0

CCSDS_OMM_VERS = 2.0
CREATION_DATE  = 
ORIGINATOR     = 

OBJECT_NAME    = CZ-4B R/B
OBJECT_ID      = 2002-024C
CENTER_NAME    = EARTH
REF_FRAME      = TEME
TIME_SYSTEM    = UTC
MEAN_ELEMENT_THEORY = SGP/SGP4

EPOCH          = 2026-01-02T21:18:44.845056
MEAN_MOTION    = 14.14533215
ECCENTRICITY   = .00497431
INCLINATION    = 98.8966
RA_OF_ASC_NODE = 56.5827
ARG_OF_PERICENTER = 209.0063
MEAN_ANOMALY   = 324.9025

EPHEMERIS_TYPE = 0
CLASSIFICATION_TYPE = U
NORAD_CAT_ID   = 27432
ELEMENT_SET_NO = 999
REV_AT_EPOCH   = 21993
BSTAR          = .93581111E-4
MEAN_MOTION_DOT = .137E-5
MEAN_MOTION_DDOT = 0

CCSDS_OMM_VERS = 2.0
CREATION_DATE  = 
ORIGINATOR     = 

OBJECT_NAME    = MIDORI II (ADEOS-II)
OBJECT_ID      = 2002-056A
CENTER_NAME    = EARTH
REF_FRAME      = TEME
TIME_SYSTEM    = UTC
MEAN_ELEMENT_THEORY = SGP/SGP4

EPOCH          = 2026-01-02T20:35:23.276256
MEAN_MOTION    = 14.29225631
ECCENTRICITY   = .00011978
INCLINATION    = 98.7662
RA_OF_ASC_NODE = 320.9282
ARG_OF_PERICENTER = 137.0276
MEAN_ANOMALY   = 223.0999

EPHEMERIS_TYPE = 0
CLASSIFICATION_TYPE = U
NORAD_CAT_ID   = 27597
ELEMENT_SET_NO = 999
REV_AT_EPOCH   = 20089
BSTAR          = .29878025E-3
MEAN_MOTION_DOT = .714E-5
MEAN_MOTION_DDOT = 0

CCSDS_OMM_VERS = 2.0
CREATION_DATE  = 
ORIGINATOR     = 

OBJECT_NAME    = H-2A R/B
OBJECT_ID      = 2002-056E
CENTER_NAME    = EARTH
REF_FRAME      = TEME
TIME_SYSTEM    = UTC
MEAN_ELEMENT_THEORY = SGP/SGP4

EPOCH          = 2026-01-02T21:31:13.266048
MEAN_MOTION    = 14.33700257
ECCENTRICITY   = .00703698
INCLINATION    = 98.3092
RA_OF_ASC_NODE = 325.8145
ARG_OF_PERICENTER = 358.6264
MEAN_ANOMALY   = 60.8853

EPHEMERIS_TYPE = 0
CLASSIFICATION_TYPE = U
NORAD_CAT_ID   = 27601
ELEMENT_SET_NO = 999
REV_AT_EPOCH   = 20468
BSTAR          = .29625246E-3
MEAN_MOTION_DOT = .803E-5
MEAN_MOTION_DDOT = 0

CCSDS_OMM_VERS = 2.0
CREATION_DATE  = 
ORIGINATOR     = 

OBJECT_NAME    = CZ-4B R/B
OBJECT_ID      = 2003-049C
CENTER_NAME    = EARTH
REF_FRAME      = TEME
TIME_SYSTEM    = UTC
MEAN_ELEMENT_THEORY = SGP/SGP4

EPOCH          = 2026-01-02T23:36:45.083232
MEAN_MOTION    = 14.54935298
ECCENTRICITY   = .0049284
INCLINATION    = 98.6803
RA_OF_ASC_NODE = 355.3521
ARG_OF_PERICENTER = 72.5954
MEAN_ANOMALY   = 288.0623

EPHEMERIS_TYPE = 0
CLASSIFICATION_TYPE = U
NORAD_CAT_ID   = 28059
ELEMENT_SET_NO = 999
REV_AT_EPOCH   = 17704
BSTAR          = .21160142E-3
MEAN_MOTION_DOT = .874E-5
MEAN_MOTION_DDOT = 0

CCSDS_OMM_VERS = 2.0
CREATION_DATE  = 
ORIGINATOR     = 

OBJECT_NAME    = CZ-2C R/B
OBJECT_ID      = 2004-012C
CENTER_NAME    = EARTH
REF_FRAME      = TEME
TIME_SYSTEM    = UTC
MEAN_ELEMENT_THEORY = SGP/SGP4

EPOCH          = 2026-01-02T16:47:50.388000
MEAN_MOTION    = 15.57350049
ECCENTRICITY   = .00166162
INCLINATION    = 97.7383
RA_OF_ASC_NODE = 62.0755
ARG_OF_PERICENTER = 189.8315
MEAN_ANOMALY   = 170.2617

EPHEMERIS_TYPE = 0
CLASSIFICATION_TYPE = U
NORAD_CAT_ID   = 28222
ELEMENT_SET_NO = 999
REV_AT_EPOCH   = 19398
BSTAR          = .8284718E-3
MEAN_MOTION_DOT = .61199E-3
MEAN_MOTION_DDOT = 0

CCSDS_OMM_VERS = 2.0
CREATION_DATE  = 
ORIGINATOR     = 

OBJECT_NAME    = SL-16 R/B
OBJECT_ID      = 2004-021B
CENTER_NAME    = EARTH
REF_FRAME      = TEME
TIME_SYSTEM    = UTC
MEAN_ELEMENT_THEORY = SGP/SGP4

EPOCH          = 2026-01-02T18:21:22.257216
MEAN_MOTION    = 14.14586447
ECCENTRICITY   = .00040541
INCLINATION    = 71.0013
RA_OF_ASC_NODE = 10.8413
ARG_OF_PERICENTER = 164.8790
MEAN_ANOMALY   = 195.2454

EPHEMERIS_TYPE = 0
CLASSIFICATION_TYPE = U
NORAD_CAT_ID   = 28353
ELEMENT_SET_NO = 999
REV_AT_EPOCH   = 11351
BSTAR          = .25117861E-3
MEAN_MOTION_DOT = .435E-5
MEAN_MOTION_DDOT = 0

CCSDS_OMM_VERS = 2.0
CREATION_DATE  = 
ORIGINATOR     = 

OBJECT_NAME    = CZ-4B R/B
OBJECT_ID      = 2004-035C
CENTER_NAME    = EARTH
REF_FRAME      = TEME
TIME_SYSTEM    = UTC
MEAN_ELEMENT_THEORY = SGP/SGP4

EPOCH          = 2026-01-02T23:34:06.950496
MEAN_MOTION    = 15.27785808
ECCENTRICITY   = .00323656
INCLINATION    = 97.3578
RA_OF_ASC_NODE = 38.0451
ARG_OF_PERICENTER = 199.0223
MEAN_ANOMALY   = 160.9811

EPHEMERIS_TYPE = 0
CLASSIFICATION_TYPE = U
NORAD_CAT_ID   = 28415
ELEMENT_SET_NO = 999
REV_AT_EPOCH   = 16987
BSTAR          = .51833438E-3
MEAN_MOTION_DOT = .14222E-3
MEAN_MOTION_DDOT = 0

CCSDS_OMM_VERS = 2.0
CREATION_DATE  = 
ORIGINATOR     = 

OBJECT_NAME    = CZ-2C R/B
OBJECT_ID      = 2004-046B
CENTER_NAME    = EARTH
REF_FRAME      = TEME
TIME_SYSTEM    = UTC
MEAN_ELEMENT_THEORY = SGP/SGP4

EPOCH          = 2026-01-02T18:49:24.204288
MEAN_MOTION    = 14.26957843
ECCENTRICITY   = .01393504
INCLINATION    = 98.1998
RA_OF_ASC_NODE = 281.8557
ARG_OF_PERICENTER = 350.2659
MEAN_ANOMALY   = 9.5828

EPHEMERIS_TYPE = 0
CLASSIFICATION_TYPE = U
NORAD_CAT_ID   = 28480
ELEMENT_SET_NO = 999
REV_AT_EPOCH   = 9910
BSTAR          = .23976926E-3
MEAN_MOTION_DOT = .604E-5
MEAN_MOTION_DDOT = 0

CCSDS_OMM_VERS = 2.0
CREATION_DATE  = 
ORIGINATOR     = 

OBJECT_NAME    = ARIANE 5 R/B
OBJECT_ID      = 2004-049H
CENTER_NAME    = EARTH
REF_FRAME      = TEME
TIME_SYSTEM    = UTC
MEAN_ELEMENT_THEORY = SGP/SGP4

EPOCH          = 2026-01-02T22:39:59.501952
MEAN_MOTION    = 14.85084251
ECCENTRICITY   = .00839681
INCLINATION    = 98.2528
RA_OF_ASC_NODE = 168.9887
ARG_OF_PERICENTER = 203.4595
MEAN_ANOMALY   = 156.2779

EPHEMERIS_TYPE = 0
CLASSIFICATION_TYPE = U
NORAD_CAT_ID   = 28499
ELEMENT_SET_NO = 999
REV_AT_EPOCH   = 13603
BSTAR          = .30552464E-3
MEAN_MOTION_DOT = .2717E-4
MEAN_MOTION_DDOT = 0

CCSDS_OMM_VERS = 2.0
CREATION_DATE  = 
ORIGINATOR     = 

OBJECT_NAME    = CZ-2D R/B
OBJECT_ID      = 2005-024B
CENTER_NAME    = EARTH
REF_FRAME      = TEME
TIME_SYSTEM    = UTC
MEAN_ELEMENT_THEORY = SGP/SGP4

EPOCH          = 2026-01-02T23:22:07.969440
MEAN_MOTION    = 15.54657373
ECCENTRICITY   = .00030765
INCLINATION    = 97.3617
RA_OF_ASC_NODE = 15.9963
ARG_OF_PERICENTER = 257.1560
MEAN_ANOMALY   = 102.9350

EPHEMERIS_TYPE = 0
CLASSIFICATION_TYPE = U
NORAD_CAT_ID   = 28738
ELEMENT_SET_NO = 999
REV_AT_EPOCH   = 12955
BSTAR          = .7056325E-3
MEAN_MOTION_DOT = .46828E-3
MEAN_MOTION_DDOT = 0

