IDEFIX & ARIANE 42P R/B 
1 27422U 02021B   26002.83987563  .00000655  00000+0  26544-3 0  9990
2 27422  98.5808 302.2594 0012360  25.9706 334.2095 14.30969933234601
AQUA                    
1 27424U 02022A   25365.92641127  .00002078  00000+0  42628-3 0  9999
2 27424  98.4058 327.1196 0001962  94.7781 340.6230 14.61783896258835
CZ-4B R/B               
1 27432U 02024C   26002.88801904  .00000137  00000+0  93581-4 0  9994
2 27432  98.8966  56.5827 0049743 209.0063 324.9025 14.14533215219934
MIDORI II (ADEOS-II)    
1 27597U 02056A   26002.85790829  .00000714  00000+0  29878-3 0  9999
2 27597  98.7662 320.9282 0001197 137.0276 223.0999 14.29225631200898
H-2A R/B                
1 27601U 02056E   26002.89668132  .00000803  00000+0  29625-3 0  9999
2 27601  98.3092 325.8145 0070369 358.6264  60.8853 14.33700257204688
CZ-4B R/B               
1 28059U 03049C   26002.98385513  .00000874  00000+0  21160-3 0  9993
2 28059  98.6803 355.3521 0049284  72.5954 288.0623 14.54935298177041
CZ-2C R/B               
1 28222U 04012C   26002.69988875  .00061199  00000+0  82847-3 0  9990
2 28222  97.7383  62.0755 0016616 189.8315 170.2617 15.57350049193988
SL-16 R/B               
1 28353U 04021B   26002.76484094  .00000435  00000+0  25118-3 0  9991
2 28353  71.0013  10.8413 0004054 164.8790 195.2454 14.14586447113515
CZ-4B R/B               
1 28415U 04035C   26002.98202489  .00014222  00000+0  51833-3 0  9997
2 28415  97.3578  38.0451 0032365 199.0223 160.9811 15.27785808169875
CZ-2C R/B               
1 28480U 04046B   26002.78430792  .00000604  00000+0  23977-3 0  9996
2 28480  98.1998 281.8557 0139350 350.2659   9.5828 14.26957843 99105
ARIANE 5 R/B            
1 28499U 04049H   26002.94443868  .00002717  00000+0  30552-3 0  9999
2 28499  98.2528 168.9887 0083968 203.4595 156.2779 14.85084251136035
CZ-2D R/B               
1 28738U 05024B   26002.97370335  .00046828  00000+0  70563-3 0  9997
2 28738  97.3617  15.9963 0003076 257.1560 102.9350 15.54657373129556
